{
  "norad_id": 65959,
  "name": "KUIPER-00130",
  "history": [
    {
      "epoch": "2026-03-28T17:59:26.165760Z",
      "apogee_km": 629.9933428435843,
      "perigee_km": 629.0599220477425,
      "latitude_deg": -3.4189523287954595e-05,
      "longitude_deg": 170.308065717417,
      "height_km": 630.4261979663498,
      "semi_major_axis_km": 7007.663632445663,
      "eccentricity": 6.66e-05,
      "inclination_deg": 51.9016,
      "raan_deg": 266.3327,
      "arg_perigee_deg": 109.1943,
      "mean_anomaly_deg": 250.9091,
      "mean_motion_rev_day": 14.7993585
    }
  ]
}